[{"OBJECT_NAME":"STARLINK-4732","OBJECT_ID":"2022-114BE","EPOCH":"2026-03-09T19:47:27.233664","MEAN_MOTION":15.08837432,"ECCENTRICITY":0.00013801,"INCLINATION":53.2154,"RA_OF_ASC_NODE":263.4506,"ARG_OF_PERICENTER":89.7932,"MEAN_ANOMALY":270.3218,"EPHEMERIS_TYPE":0,"CLASSIFICATION_TYPE":"U","NORAD_CAT_ID":53870,"ELEMENT_SET_NO":999,"REV_AT_EPOCH":19341,"BSTAR":-2.1107874e-5,"MEAN_MOTION_DOT":-6.24e-6,"MEAN_MOTION_DDOT":0},{"OBJECT_NAME":"CZ-6A DEB","OBJECT_ID":"2024-140GE","EPOCH":"2026-03-09T23:15:37.114848","MEAN_MOTION":15.28179091,"ECCENTRICITY":0.00907227,"INCLINATION":89.625,"RA_OF_ASC_NODE":325.5051,"ARG_OF_PERICENTER":77.5431,"MEAN_ANOMALY":283.5952,"EPHEMERIS_TYPE":0,"CLASSIFICATION_TYPE":"U","NORAD_CAT_ID":60803,"ELEMENT_SET_NO":999,"REV_AT_EPOCH":8608,"BSTAR":0.0028689301,"MEAN_MOTION_DOT":0.00089907,"MEAN_MOTION_DDOT":0}]
